[{"OBJECT_NAME":"ONEWEB-0652","OBJECT_ID":"2023-029U","EPOCH":"2025-11-27T21:56:14.230176","MEAN_MOTION":13.14502266,"ECCENTRICITY":0.00016412,"INCLINATION":87.8981,"RA_OF_ASC_NODE":329.8243,"ARG_OF_PERICENTER":90.5375,"MEAN_ANOMALY":269.5943,"EPHEMERIS_TYPE":0,"CLASSIFICATION_TYPE":"U","NORAD_CAT_ID":55814,"ELEMENT_SET_NO":999,"REV_AT_EPOCH":13292,"BSTAR":0.00039440221,"MEAN_MOTION_DOT":1.59e-6,"MEAN_MOTION_DDOT":0},{"OBJECT_NAME":"ONEWEB-0653","OBJECT_ID":"2023-029V","EPOCH":"2025-11-27T21:33:24.362496","MEAN_MOTION":13.14501862,"ECCENTRICITY":0.00017769,"INCLINATION":87.8983,"RA_OF_ASC_NODE":329.817,"ARG_OF_PERICENTER":94.0637,"MEAN_ANOMALY":266.0696,"EPHEMERIS_TYPE":0,"CLASSIFICATION_TYPE":"U","NORAD_CAT_ID":55815,"ELEMENT_SET_NO":999,"REV_AT_EPOCH":13295,"BSTAR":0.00017225971,"MEAN_MOTION_DOT":7.7e-7,"MEAN_MOTION_DDOT":0},{"OBJECT_NAME":"ONEWEB-0654","OBJECT_ID":"2023-029W","EPOCH":"2025-11-27T21:26:32.930016","MEAN_MOTION":13.14501899,"ECCENTRICITY":0.00015108,"INCLINATION":87.8984,"RA_OF_ASC_NODE":329.8171,"ARG_OF_PERICENTER":95.994,"MEAN_ANOMALY":264.1362,"EPHEMERIS_TYPE":0,"CLASSIFICATION_TYPE":"U","NORAD_CAT_ID":55816,"ELEMENT_SET_NO":999,"REV_AT_EPOCH":13297,"BSTAR":-1.7055864e-5,"MEAN_MOTION_DOT":6.0e-8,"MEAN_MOTION_DDOT":0},{"OBJECT_NAME":"ONEWEB-0656","OBJECT_ID":"2023-029X","EPOCH":"2025-11-27T22:02:19.449888","MEAN_MOTION":13.20770823,"ECCENTRICITY":0.00014756,"INCLINATION":87.9194,"RA_OF_ASC_NODE":314.5658,"ARG_OF_PERICENTER":95.7182,"MEAN_ANOMALY":264.4119,"EPHEMERIS_TYPE":0,"CLASSIFICATION_TYPE":"U","NORAD_CAT_ID":55817,"ELEMENT_SET_NO":999,"REV_AT_EPOCH":13458,"BSTAR":-0.00049281225,"MEAN_MOTION_DOT":-1.87e-6,"MEAN_MOTION_DDOT":0},{"OBJECT_NAME":"ONEWEB-0657","OBJECT_ID":"2023-029Y","EPOCH":"2025-11-27T18:42:21.039552","MEAN_MOTION":13.19725576,"ECCENTRICITY":0.00012332,"INCLINATION":87.9193,"RA_OF_ASC_NODE":345.062,"ARG_OF_PERICENTER":73.8336,"MEAN_ANOMALY":286.2933,"EPHEMERIS_TYPE":0,"CLASSIFICATION_TYPE":"U","NORAD_CAT_ID":55818,"ELEMENT_SET_NO":999,"REV_AT_EPOCH":13234,"BSTAR":8.4087618e-5,"MEAN_MOTION_DOT":4.7e-7,"MEAN_MOTION_DDOT":0},{"OBJECT_NAME":"ONEWEB-0658","OBJECT_ID":"2023-029Z","EPOCH":"2025-11-27T18:35:30.003648","MEAN_MOTION":13.19723523,"ECCENTRICITY":0.00021398,"INCLINATION":87.9212,"RA_OF_ASC_NODE":345.0138,"ARG_OF_PERICENTER":82.6506,"MEAN_ANOMALY":277.487,"EPHEMERIS_TYPE":0,"CLASSIFICATION_TYPE":"U","NORAD_CAT_ID":55819,"ELEMENT_SET_NO":999,"REV_AT_EPOCH":13235,"BSTAR":0.00013739,"MEAN_MOTION_DOT":6.8e-7,"MEAN_MOTION_DDOT":0},{"OBJECT_NAME":"ONEWEB-0660","OBJECT_ID":"2023-029AA","EPOCH":"2025-11-27T17:15:21.717504","MEAN_MOTION":13.14502605,"ECCENTRICITY":0.00020796,"INCLINATION":87.899,"RA_OF_ASC_NODE":329.8299,"ARG_OF_PERICENTER":93.718,"MEAN_ANOMALY":266.4187,"EPHEMERIS_TYPE":0,"CLASSIFICATION_TYPE":"U","NORAD_CAT_ID":55820,"ELEMENT_SET_NO":999,"REV_AT_EPOCH":13293,"BSTAR":-0.00042164703,"MEAN_MOTION_DOT":-1.44e-6,"MEAN_MOTION_DDOT":0},{"OBJECT_NAME":"ONEWEB-0661","OBJECT_ID":"2023-029AB","EPOCH":"2025-11-27T18:05:36.588480","MEAN_MOTION":13.14503952,"ECCENTRICITY":0.00020276,"INCLINATION":87.8981,"RA_OF_ASC_NODE":329.8898,"ARG_OF_PERICENTER":96.9524,"MEAN_ANOMALY":263.1836,"EPHEMERIS_TYPE":0,"CLASSIFICATION_TYPE":"U","NORAD_CAT_ID":55821,"ELEMENT_SET_NO":999,"REV_AT_EPOCH":13292,"BSTAR":0.00081833203,"MEAN_MOTION_DOT":3.16e-6,"MEAN_MOTION_DDOT":0},{"OBJECT_NAME":"ONEWEB-0662","OBJECT_ID":"2023-029AC","EPOCH":"2025-11-28T00:24:40.188384","MEAN_MOTION":13.14503771,"ECCENTRICITY":0.00021285,"INCLINATION":87.8981,"RA_OF_ASC_NODE":329.8433,"ARG_OF_PERICENTER":92.131,"MEAN_ANOMALY":268.0064,"EPHEMERIS_TYPE":0,"CLASSIFICATION_TYPE":"U","NORAD_CAT_ID":55822,"ELEMENT_SET_NO":999,"REV_AT_EPOCH":13300,"BSTAR":-0.00017989298,"MEAN_MOTION_DOT":-5.4e-7,"MEAN_MOTION_DDOT":0},{"OBJECT_NAME":"ONEWEB-0663","OBJECT_ID":"2023-029AD","EPOCH":"2025-11-27T21:21:56.791296","MEAN_MOTION":13.20851873,"ECCENTRICITY":0.00023088,"INCLINATION":87.9203,"RA_OF_ASC_NODE":314.6367,"ARG_OF_PERICENTER":86.1927,"MEAN_ANOMALY":273.947,"EPHEMERIS_TYPE":0,"CLASSIFICATION_TYPE":"U","NORAD_CAT_ID":55823,"ELEMENT_SET_NO":999,"REV_AT_EPOCH":13457,"BSTAR":-2.2952148e-5,"MEAN_MOTION_DOT":4.0e-8,"MEAN_MOTION_DDOT":0},{"OBJECT_NAME":"ONEWEB-0664","OBJECT_ID":"2023-029AE","EPOCH":"2025-11-27T21:44:10.066848","MEAN_MOTION":13.20772794,"ECCENTRICITY":0.00018871,"INCLINATION":87.9188,"RA_OF_ASC_NODE":314.6413,"ARG_OF_PERICENTER":98.2604,"MEAN_ANOMALY":261.8743,"EPHEMERIS_TYPE":0,"CLASSIFICATION_TYPE":"U","NORAD_CAT_ID":55824,"ELEMENT_SET_NO":999,"REV_AT_EPOCH":13457,"BSTAR":0.00039226565,"MEAN_MOTION_DOT":1.72e-6,"MEAN_MOTION_DDOT":0},{"OBJECT_NAME":"ONEWEB-0665","OBJECT_ID":"2023-029AF","EPOCH":"2025-11-27T21:40:15.834720","MEAN_MOTION":13.1450257,"ECCENTRICITY":0.00021299,"INCLINATION":87.8983,"RA_OF_ASC_NODE":329.8375,"ARG_OF_PERICENTER":89.5843,"MEAN_ANOMALY":270.5531,"EPHEMERIS_TYPE":0,"CLASSIFICATION_TYPE":"U","NORAD_CAT_ID":55825,"ELEMENT_SET_NO":999,"REV_AT_EPOCH":13296,"BSTAR":0.00037147447,"MEAN_MOTION_DOT":1.51e-6,"MEAN_MOTION_DDOT":0},{"OBJECT_NAME":"ONEWEB-0666","OBJECT_ID":"2023-029AG","EPOCH":"2025-11-27T21:35:03.045120","MEAN_MOTION":13.20773226,"ECCENTRICITY":0.00012242,"INCLINATION":87.9184,"RA_OF_ASC_NODE":314.6318,"ARG_OF_PERICENTER":70.4487,"MEAN_ANOMALY":289.6779,"EPHEMERIS_TYPE":0,"CLASSIFICATION_TYPE":"U","NORAD_CAT_ID":55826,"ELEMENT_SET_NO":999,"REV_AT_EPOCH":13458,"BSTAR":0.00020216779,"MEAN_MOTION_DOT":9.5e-7,"MEAN_MOTION_DDOT":0},{"OBJECT_NAME":"ONEWEB-0667","OBJECT_ID":"2023-029AH","EPOCH":"2025-11-27T21:25:59.277216","MEAN_MOTION":13.20769839,"ECCENTRICITY":0.00020132,"INCLINATION":87.9191,"RA_OF_ASC_NODE":314.5647,"ARG_OF_PERICENTER":90.2986,"MEAN_ANOMALY":269.8378,"EPHEMERIS_TYPE":0,"CLASSIFICATION_TYPE":"U","NORAD_CAT_ID":55827,"ELEMENT_SET_NO":999,"REV_AT_EPOCH":13457,"BSTAR":-4.1355269e-5,"MEAN_MOTION_DOT":-4.0e-8,"MEAN_MOTION_DDOT":0},{"OBJECT_NAME":"ONEWEB-0669","OBJECT_ID":"2023-029AJ","EPOCH":"2025-11-27T21:19:09.602112","MEAN_MOTION":13.20769832,"ECCENTRICITY":0.00014392,"INCLINATION":87.9183,"RA_OF_ASC_NODE":314.6012,"ARG_OF_PERICENTER":104.8527,"MEAN_ANOMALY":255.2765,"EPHEMERIS_TYPE":0,"CLASSIFICATION_TYPE":"U","NORAD_CAT_ID":55828,"ELEMENT_SET_NO":999,"REV_AT_EPOCH":13457,"BSTAR":-7.445411e-6,"MEAN_MOTION_DOT":1.0e-7,"MEAN_MOTION_DDOT":0},{"OBJECT_NAME":"ONEWEB-0670","OBJECT_ID":"2023-029AK","EPOCH":"2025-11-27T12:00:14.001984","MEAN_MOTION":13.14502216,"ECCENTRICITY":0.00020197,"INCLINATION":87.8986,"RA_OF_ASC_NODE":329.9378,"ARG_OF_PERICENTER":99.3448,"MEAN_ANOMALY":260.791,"EPHEMERIS_TYPE":0,"CLASSIFICATION_TYPE":"U","NORAD_CAT_ID":55829,"ELEMENT_SET_NO":999,"REV_AT_EPOCH":13293,"BSTAR":-0.00050618144,"MEAN_MOTION_DOT":-1.75e-6,"MEAN_MOTION_DDOT":0}]
