ONEWEB-0652             
1 55814U 23029U   25331.91405359  .00000159  00000+0  39440-3 0  9996
2 55814  87.8981 329.8243 0001641  90.5375 269.5943 13.14502266132923
ONEWEB-0653             
1 55815U 23029V   25331.89819864  .00000077  00000+0  17226-3 0  9991
2 55815  87.8983 329.8170 0001776  94.0637 266.0696 13.14501862132955
ONEWEB-0654             
1 55816U 23029W   25331.89343669  .00000006  00000+0 -17056-4 0  9992
2 55816  87.8984 329.8171 0001510  95.9940 264.1362 13.14501899132972
ONEWEB-0656             
1 55817U 23029X   25331.91828067 -.00000187  00000+0 -49281-3 0  9991
2 55817  87.9194 314.5658 0001475  95.7182 264.4119 13.20770823134588
ONEWEB-0657             
1 55818U 23029Y   25331.77941018  .00000047  00000+0  84088-4 0  9996
2 55818  87.9193 345.0620 0001233  73.8336 286.2933 13.19725576132347
ONEWEB-0658             
1 55819U 23029Z   25331.77465282  .00000068  00000+0  13739-3 0  9998
2 55819  87.9212 345.0138 0002139  82.6506 277.4870 13.19723523132350
ONEWEB-0660             
1 55820U 23029AA  25331.71900136 -.00000144  00000+0 -42165-3 0  9998
2 55820  87.8990 329.8299 0002079  93.7180 266.4187 13.14502605132930
ONEWEB-0661             
1 55821U 23029AB  25331.75389570  .00000316  00000+0  81833-3 0  9990
2 55821  87.8981 329.8898 0002027  96.9524 263.1836 13.14503952132926
ONEWEB-0662             
1 55822U 23029AC  25332.01713181 -.00000054  00000+0 -17989-3 0  9992
2 55822  87.8981 329.8433 0002128  92.1310 268.0064 13.14503771133001
ONEWEB-0663             
1 55823U 23029AD  25331.89024064  .00000004  00000+0 -22952-4 0  9994
2 55823  87.9203 314.6367 0002308  86.1927 273.9470 13.20851873134570
ONEWEB-0664             
1 55824U 23029AE  25331.90567207  .00000172  00000+0  39227-3 0  9995
2 55824  87.9188 314.6413 0001887  98.2604 261.8743 13.20772794134575
ONEWEB-0665             
1 55825U 23029AF  25331.90296105  .00000151  00000+0  37147-3 0  9998
2 55825  87.8983 329.8375 0002129  89.5843 270.5531 13.14502570132960
ONEWEB-0666             
1 55826U 23029AG  25331.89934080  .00000095  00000+0  20217-3 0  9995
2 55826  87.9184 314.6318 0001224  70.4487 289.6779 13.20773226134582
ONEWEB-0667             
1 55827U 23029AH  25331.89304719 -.00000004  00000+0 -41355-4 0  9995
2 55827  87.9191 314.5647 0002013  90.2986 269.8378 13.20769839134575
ONEWEB-0669             
1 55828U 23029AJ  25331.88830558  .00000010  00000+0 -74454-5 0  9993
2 55828  87.9183 314.6012 0001439 104.8527 255.2765 13.20769832134570
ONEWEB-0670             
1 55829U 23029AK  25331.50016206 -.00000175  00000+0 -50618-3 0  9996
2 55829  87.8986 329.9378 0002019  99.3448 260.7910 13.14502216132935
